STARLINK-1132           
1 45044U 20006A   22116.72961523  .00000155  00000+0  29305-4 0  9995
2 45044  53.0542 129.6536 0001846  49.4676 310.6474 15.06393214123774
STARLINK-1120           
1 45045U 20006B   22116.78305760 -.00000396  00000+0 -77092-5 0  9993
2 45045  53.0536 149.3972 0001810  42.9800 317.1330 15.06393349123502
STARLINK-1129           
1 45046U 20006C   22116.80149854  .00025191  00000+0  14378-2 0  9990
2 45046  52.9951 140.3316 0002402  34.8407 325.2741 15.12609665123599
STARLINK-1131           
1 45047U 20006D   22116.78674008  .00003111  00000+0  22764-3 0  9999
2 45047  53.0529 149.3907 0001869  53.2760 306.8401 15.06407505123502
STARLINK-1134           
1 45048U 20006E   22116.79412009  .00000335  00000+0  41379-4 0  9991
2 45048  53.0535 149.3440 0001685  58.9899 301.1255 15.06395019123504
STARLINK-1135           
1 45049U 20006F   22116.81046187  .00010646  00000+0  69208-3 0  9991
2 45049  53.0534 148.7284 0000582 149.9813 210.1210 15.08509724123518
STARLINK-1140           
1 45050U 20006G   22116.80517990 -.00001233  00000+0 -63932-4 0  9990
2 45050  53.0525 149.2964 0001763  48.6196 311.4945 15.06388307123501
STARLINK-1141           
1 45051U 20006H   22116.79586119  .00019237  00000+0  11657-2 0  9994
2 45051  53.0503 147.1700 0002084  36.3979 323.7153 15.10604278123536
STARLINK-1148           
1 45052U 20006J   22116.81254382 -.00000037  00000+0  16452-4 0  9991
2 45052  53.0531 149.2654 0001675  64.3849 295.7313 15.06396497123500
STARLINK-1155           
1 45053U 20006K   22116.54467488  .00003244  00000+0  20787-3 0  9992
2 45053  53.0000 144.7657 0001797  48.4326 311.6818 15.11266098123511
STARLINK-1156           
1 45054U 20006L   22116.80884837  .00002138  00000+0  16233-3 0  9995
2 45054  53.0533 149.2979 0001686  48.7882 311.3252 15.06407358123505
STARLINK-1159           
1 45057U 20006P   22116.82361025  .00001682  00000+0  13184-3 0  9994
2 45057  53.0537 149.2049 0001566  57.3457 302.7683 15.06390572123513
STARLINK-1162           
1 45058U 20006Q   22116.81623400 -.00000329  00000+0 -32121-5 0  9995
2 45058  53.0525 149.2452 0001752  55.2714 304.8440 15.06396067123518
STARLINK-1165           
1 45059U 20006R   22116.57294887  .00001271  00000+0  10424-3 0  9997
2 45059  53.0543 150.3524 0001730  54.8007 305.3144 15.06399617123474
STARLINK-1166           
1 45060U 20006S   22116.56927408 -.00000742  00000+0 -30884-4 0  9997
2 45060  53.0538 150.3638 0002000  37.1916 322.9212 15.06396249123479
STARLINK-1169           
1 45061U 20006T   22116.57664309 -.00000941  00000+0 -44265-4 0  9996
2 45061  53.0526 150.3367 0001847  51.9578 308.1577 15.06398482123473
STARLINK-1171           
1 45062U 20006U   22116.82727685  .00001892  00000+0  14589-3 0  9991
2 45062  53.0541 149.2002 0001813  54.6479 305.4679 15.06406511123518
STARLINK-1133           
1 45064U 20006W   22116.77384492  .00001593  00000+0  12581-3 0  9990
2 45064  53.0553 129.4488 0001750  57.6734 302.4424 15.06398541123785
STARLINK-1139           
1 45065U 20006X   22116.51213898 -.00000769  00000+0 -32699-4 0  9993
2 45065  53.0538 130.6247 0001826  57.0339 303.0826 15.06394221123745
STARLINK-1145           
1 45066U 20006Y   22116.75172350 -.00000238  00000+0  29503-5 0  9998
2 45066  53.0526 129.5471 0001778  53.6091 306.5061 15.06410577123777
STARLINK-1150           
1 45067U 20006Z   22116.76646375 -.00001207  00000+0 -62129-4 0  9991
2 45067  53.0550 129.4633 0001759  55.6911 304.4244 15.06394718123785
STARLINK-1161           
1 45068U 20006AA  22116.73971781  .00001811  00000+0  14044-3 0  9992
2 45068  53.0580 129.4498 0001704  67.6456 292.4713 15.06399253123770
STARLINK-1167           
1 45071U 20006AD  22116.73328799  .00000930  00000+0  81326-4 0  9990
2 45071  53.0543 129.6364 0001687  53.7378 306.3766 15.06403840123777
STARLINK-1168           
1 45072U 20006AE  22116.73698739 -.00000616  00000+0 -22476-4 0  9999
2 45072  53.0556 129.6103 0001921  50.2305 309.8853 15.06390055123774
STARLINK-1170           
1 45073U 20006AF  22116.76278614  .00000944  00000+0  82295-4 0  9996
2 45073  53.0539 129.4834 0001954  45.3062 314.8086 15.06397704123778
STARLINK-1172           
1 45074U 20006AG  22116.54900006  .00001757  00000+0  13685-3 0  9999
2 45074  53.0513 130.4602 0001464  50.1669 309.9449 15.06400080123746
STARLINK-1174           
1 45075U 20006AH  22116.51583016  .00000727  00000+0  67701-4 0  9990
2 45075  53.0526 130.5968 0001771  55.7006 304.4150 15.06395539123745
STARLINK-1180           
1 45076U 20006AJ  22116.52319906 -.00000536  00000+0 -17086-4 0  9998
2 45076  53.0539 130.5672 0001884  53.8748 306.2415 15.06393653123748
STARLINK-1177           
1 45078U 20006AL  22116.74067345 -.00000954  00000+0 -45158-4 0  9996
2 45078  53.0530 129.6033 0002035  35.9065 324.2060 15.06392843123761
STARLINK-1149           
1 45079U 20006AM  22116.45316240  .00001586  00000+0  12533-3 0  9996
2 45079  53.0535 130.8733 0001440  73.0355 287.0792 15.06402200123725
STARLINK-1153           
1 45080U 20006AN  22116.72592072  .00000897  00000+0  79145-4 0  9994
2 45080  53.0538 129.6554 0001995  44.2269 315.8879 15.06402656123772
STARLINK-1151           
1 45081U 20006AP  22116.77015531  .00000813  00000+0  73485-4 0  9999
2 45081  53.0525 129.4669 0001849  55.2494 304.8669 15.06398658123786
STARLINK-1160           
1 45082U 20006AQ  22116.75909977  .00000684  00000+0  64853-4 0  9999
2 45082  53.0548 129.5085 0002123  41.2752 318.8398 15.06391211123774
STARLINK-1190           
1 45083U 20006AR  22116.59139436  .00000293  00000+0  38585-4 0  9996
2 45083  53.0546 150.2749 0001850  48.9787 311.1361 15.06396629123470
STARLINK-1173           
1 45084U 20006AS  22116.70564920  .00000576  00000+0  57570-4 0  9999
2 45084  53.0555 109.7529 0001786  49.7682 310.3463 15.06393043124053
STARLINK-1179           
1 45085U 20006AT  22116.70196619  .00000720  00000+0  67288-4 0  9994
2 45085  53.0548 109.7557 0001930  54.6427 305.4742 15.06390045124054
STARLINK-1181           
1 45086U 20006AU  22116.69566310  .00020336  00000+0  11517-2 0  9999
2 45086  52.9993 102.8516 0002577  46.4105 313.7100 15.13013860124039
STARLINK-1185           
1 45087U 20006AV  22116.81991454 -.00000841  00000+0 -37548-4 0  9990
2 45087  53.0534 109.2275 0001574  56.8715 303.2425 15.06393004124075
STARLINK-1183           
1 45088U 20006AW  22116.24490080 -.00003283  00000+0 -20148-3 0  9997
2 45088  53.0524 111.8213 0001745  50.0640 310.0502 15.06420440123985
STARLINK-1136           
1 45089U 20006AX  22116.70839332  .00000391  00000+0  45157-4 0  9999
2 45089  53.0565 109.7426 0001470  68.4215 291.6930 15.06398158124068
STARLINK-1176           
1 45090U 20006AY  22116.69460014 -.00001213  00000+0 -62548-4 0  9995
2 45090  53.0551 109.7974 0001733  57.6478 302.4679 15.06388522124050
STARLINK-1137           
1 45092U 20006BA  22116.66879660 -.00001072  00000+0 -53066-4 0  9993
2 45092  53.0546 109.9241 0001865  49.5263 310.5888 15.06393154124041
STARLINK-1142           
1 45093U 20006BB  22116.46606780  .00000464  00000+0  50054-4 0  9999
2 45093  53.0547 110.8287 0001865  59.5459 300.5714 15.06389572124015
STARLINK-1146           
1 45094U 20006BC  22116.67984050  .00001069  00000+0  90654-4 0  9994
2 45094  53.0540 109.8664 0001548  57.6064 302.5074 15.06402930124054
STARLINK-1147           
1 45095U 20006BD  22116.68353422  .00003169  00000+0  23151-3 0  9999
2 45095  53.0513 109.8514 0001938  55.6756 304.4416 15.06403741124050
STARLINK-1152           
1 45096U 20006BE  22116.67616456 -.00001277  00000+0 -66848-4 0  9999
2 45096  53.0526 109.8884 0001630  50.7176 309.3958 15.06391753124049
STARLINK-1184           
1 45098U 20006BG  22116.45869942  .00001314  00000+0  10709-3 0  9991
2 45098  53.0527 110.8614 0001658  68.0750 292.0415 15.06394244124016
STARLINK-1186           
1 45099U 20006BH  22116.69091417  .00000929  00000+0  81262-4 0  9996
2 45099  53.0558 109.8286 0002015  47.4141 312.7018 15.06389779124057
STARLINK-1193           
1 45100U 20006BJ  22116.45500472 -.00000619  00000+0 -22649-4 0  9991
2 45100  53.0552 110.8707 0001678  52.3236 307.7905 15.06397513124018
STARLINK-1194           
1 45101U 20006BK  22116.71670094  .00000658  00000+0  63084-4 0  9998
2 45101  53.0547 109.6860 0001698  51.5473 308.5668 15.06394893124052
STARLINK-1195           
1 45102U 20006BL  22116.67247210  .00000779  00000+0  71190-4 0  9995
2 45102  53.0531 109.9051 0001814  57.9220 302.1945 15.06398745124048
STARLINK-1196           
1 45103U 20006BM  22116.70470260  .00002381  00000+0  17868-3 0  9995
2 45103  53.0493 109.8018 0001653  62.3641 297.7515 15.06400055124057
ORBITAL FACTORY 2 (OF-2)
1 45113U 19071C   22115.94545382  .00024015  00000+0  54966-3 0  9997
2 45113  51.6401 317.2140 0008967 341.2722  18.7933 15.42627272125267
AEROCUBE 14A            
1 45114U 19071D   22116.75364769  .00039237  00000+0  83376-3 0  9995
2 45114  51.6376 310.5917 0007484 342.8150  17.2582 15.44587649125429
AEROCUBE 14B            
1 45116U 19071F   22116.69444261  .00031871  00000+0  68498-3 0  9990
2 45116  51.6364 310.9348 0007098 345.5857  14.4926 15.44356105125258
AEROCUBE 15B            
1 45117U 19071G   22116.82374078  .00037423  00000+0  79513-3 0  9993
2 45117  51.6376 308.8537 0007141 341.2841  18.7882 15.44615488125444
AEROCUBE 15A            
1 45118U 19071H   22117.17642144  .00035220  00000+0  74224-3 0  9992
2 45118  51.6381 306.6998 0007325 341.2226  18.8490 15.44883847125508
HUSKYSAT-1 (HO-107)     
1 45119U 19071J   22116.83235532  .00027599  00000+0  64191-3 0  9996
2 45119  51.6388 312.6160 0008730 340.5420  19.5231 15.42066886125395
VPM                     
1 45120U 19071K   22117.12862756  .00078729  00000+0  12184-2 0  9990
2 45120  51.6335 296.0475 0006466 328.6735  31.3869 15.53338139125533
